start=new Date('2022-10-04T00:00:00.000Z').valueOf();
sats=[{"SEMIMAJOR_AXIS":"6925.278","PERIAPSIS":"546.023","TIME_SYSTEM":"UTC","MEAN_MOTION":"15.06423140","RCS_SIZE":"LARGE","OBJECT_NAME":"STARLINK-1352","GP_ID":"214116349","ELEMENT_SET_NO":"999","REV_AT_EPOCH":"13622","APOAPSIS":"548.262","RA_OF_ASC_NODE":"331.7773","FILE":"3590585","REF_FRAME":"TEME","EPHEMERIS_TYPE":"0","OBJECT_TYPE":"PAYLOAD","MEAN_ELEMENT_THEORY":"SGP4","TLE_LINE1":"1 45536U 20025F   22276.64038837  .00018471  00000-0  12549-2 0  9994","SITE":"AFETR","PERIOD":"95.591","NORAD_CAT_ID":"45536","EPOCH":"2022-10-03T15:22:09.555168","TLE_LINE2":"2 45536  53.0553 331.7773 0001617  56.5538 303.5605 15.06423140136226","OBJECT_ID":"2020-025F","DECAY_DATE":null,"COUNTRY_CODE":"US","MEAN_MOTION_DOT":"0.00018471","LAUNCH_DATE":"2020-04-22","ECCENTRICITY":"0.00016170","BSTAR":"0.00125490000000","ARG_OF_PERICENTER":"56.5538","CLASSIFICATION_TYPE":"U","CENTER_NAME":"EARTH","INCLINATION":"53.0553","MEAN_ANOMALY":"303.5605","MEAN_MOTION_DDOT":"0.0000000000000"},{"CLASSIFICATION_TYPE":"U","ARG_OF_PERICENTER":"64.0672","BSTAR":"0.00325810000000","LAUNCH_DATE":"2020-04-22","MEAN_MOTION_DOT":"0.00096462","ECCENTRICITY":"0.00052960","COUNTRY_CODE":"US","MEAN_MOTION_DDOT":"0.0000000000000","MEAN_ANOMALY":"296.0871","INCLINATION":"52.9756","CENTER_NAME":"EARTH","REF_FRAME":"TEME","RA_OF_ASC_NODE":"269.2750","APOAPSIS":"479.816","FILE":"3590585","ELEMENT_SET_NO":"999","REV_AT_EPOCH":"13707","RCS_SIZE":"LARGE","GP_ID":"214115105","OBJECT_NAME":"STARLINK-1353","MEAN_MOTION":"15.29875465","TIME_SYSTEM":"UTC","SEMIMAJOR_AXIS":"6854.321","PERIAPSIS":"472.556","DECAY_DATE":null,"OBJECT_ID":"2020-025G","TLE_LINE2":"2 45537  52.9756 269.2750 0005296  64.0672 296.0871 15.29875465137071","EPOCH":"2022-10-03T17:16:55.955712","NORAD_CAT_ID":"45537","SITE":"AFETR","PERIOD":"94.125","TLE_LINE1":"1 45537U 20025G   22276.72009208  .00096462  00000-0  32581-2 0  9998","OBJECT_TYPE":"PAYLOAD","MEAN_ELEMENT_THEORY":"SGP4","EPHEMERIS_TYPE":"0"},{"TLE_LINE2":"2 45538  53.0540 331.9682 0001720  45.8150 314.2981 15.06407764136221","NORAD_CAT_ID":"45538","EPOCH":"2022-10-03T14:23:46.724640","DECAY_DATE":null,"OBJECT_ID":"2020-025H","MEAN_ELEMENT_THEORY":"SGP4","OBJECT_TYPE":"PAYLOAD","EPHEMERIS_TYPE":"0","SITE":"AFETR","PERIOD":"95.592","TLE_LINE1":"1 45538U 20025H   22276.59984635  .00005954  00000-0  41818-3 0  9990","APOAPSIS":"548.381","RA_OF_ASC_NODE":"331.9682","FILE":"3590585","ELEMENT_SET_NO":"999","REV_AT_EPOCH":"13622","REF_FRAME":"TEME","TIME_SYSTEM":"UTC","SEMIMAJOR_AXIS":"6925.325","PERIAPSIS":"545.999","RCS_SIZE":"LARGE","OBJECT_NAME":"STARLINK-1362","GP_ID":"214115355","MEAN_MOTION":"15.06407764","MEAN_MOTION_DDOT":"0.0000000000000","MEAN_ANOMALY":"314.2981","CENTER_NAME":"EARTH","INCLINATION":"53.0540","ARG_OF_PERICENTER":"45.8150","BSTAR":"0.00041818000000","CLASSIFICATION_TYPE":"U","LAUNCH_DATE":"2020-04-22","MEAN_MOTION_DOT":"0.00005954","ECCENTRICITY":"0.00017200","COUNTRY_CODE":"US"},{"COUNTRY_CODE":"US","ECCENTRICITY":"0.00015870","LAUNCH_DATE":"2020-04-22","MEAN_MOTION_DOT":"0.00000951","BSTAR":"0.00008272500000","ARG_OF_PERICENTER":"58.2346","CLASSIFICATION_TYPE":"U","CENTER_NAME":"EARTH","INCLINATION":"53.0554","MEAN_ANOMALY":"301.8798","MEAN_MOTION_DDOT":"0.0000000000000","SEMIMAJOR_AXIS":"6925.319","PERIAPSIS":"546.085","TIME_SYSTEM":"UTC","MEAN_MOTION":"15.06409787","RCS_SIZE":"LARGE","GP_ID":"214116605","OBJECT_NAME":"STARLINK-1368","ELEMENT_SET_NO":"999","REV_AT_EPOCH":"13625","APOAPSIS":"548.283","RA_OF_ASC_NODE":"330.8794","FILE":"3590585","REF_FRAME":"TEME","EPHEMERIS_TYPE":"0","OBJECT_TYPE":"PAYLOAD","MEAN_ELEMENT_THEORY":"SGP4","TLE_LINE1":"1 45540U 20025K   22276.84311265  .00000951  00000-0  82725-4 0  9999","SITE":"AFETR","PERIOD":"95.592","NORAD_CAT_ID":"45540","EPOCH":"2022-10-03T20:14:04.932960","TLE_LINE2":"2 45540  53.0554 330.8794 0001587  58.2346 301.8798 15.06409787136255","OBJECT_ID":"2020-025K","DECAY_DATE":null},{"CENTER_NAME":"EARTH","INCLINATION":"53.0561","MEAN_MOTION_DDOT":"0.0000000000000","MEAN_ANOMALY":"299.7234","MEAN_MOTION_DOT":"0.00002975","LAUNCH_DATE":"2020-04-22","ECCENTRICITY":"0.00015060","COUNTRY_CODE":"US","ARG_OF_PERICENTER":"60.3905","BSTAR":"0.00021842000000","CLASSIFICATION_TYPE":"U","OBJECT_TYPE":"PAYLOAD","MEAN_ELEMENT_THEORY":"SGP4","EPHEMERIS_TYPE":"0","PERIOD":"95.591","SITE":"AFETR","TLE_LINE1":"1 45541U 20025L   22276.84679076  .00002975  00000-0  21842-3 0  9997","TLE_LINE2":"2 45541  53.0561 330.8551 0001506  60.3905 299.7234 15.06417936136256","NORAD_CAT_ID":"45541","EPOCH":"2022-10-03T20:19:22.721664","DECAY_DATE":null,"OBJECT_ID":"2020-025L","TIME_SYSTEM":"UTC","PERIAPSIS":"546.116","SEMIMAJOR_AXIS":"6925.294","GP_ID":"214116849","OBJECT_NAME":"STARLINK-1369","RCS_SIZE":"LARGE","MEAN_MOTION":"15.06417936","FILE":"3590585","RA_OF_ASC_NODE":"330.8551","APOAPSIS":"548.202","REV_AT_EPOCH":"13625","ELEMENT_SET_NO":"999","REF_FRAME":"TEME"},{"COUNTRY_CODE":"US","LAUNCH_DATE":"2020-04-22","ECCENTRICITY":"0.00016690","MEAN_MOTION_DOT":"0.00002326","CLASSIFICATION_TYPE":"U","BSTAR":"0.00017493000000","ARG_OF_PERICENTER":"62.1939","INCLINATION":"53.0550","CENTER_NAME":"EARTH","MEAN_ANOMALY":"297.9219","MEAN_MOTION_DDOT":"0.0000000000000","MEAN_MOTION":"15.06409998","RCS_SIZE":"LARGE","OBJECT_NAME":"STARLINK-1371","GP_ID":"214115605","SEMIMAJOR_AXIS":"6925.318","PERIAPSIS":"546.027","TIME_SYSTEM":"UTC","REF_FRAME":"TEME","ELEMENT_SET_NO":"999","REV_AT_EPOCH":"13622","RA_OF_ASC_NODE":"331.9060","APOAPSIS":"548.339","FILE":"3590585","TLE_LINE1":"1 45542U 20025M   22276.61459096  .00002326  00000-0  17493-3 0  9998","SITE":"AFETR","PERIOD":"95.592","EPHEMERIS_TYPE":"0","MEAN_ELEMENT_THEORY":"SGP4","OBJECT_TYPE":"PAYLOAD","OBJECT_ID":"2020-025M","DECAY_DATE":null,"NORAD_CAT_ID":"45542","EPOCH":"2022-10-03T14:45:00.658944","TLE_LINE2":"2 45542  53.0550 331.9060 0001669  62.1939 297.9219 15.06409998136228"},{"REF_FRAME":"TEME","ELEMENT_SET_NO":"999","REV_AT_EPOCH":"13531","RA_OF_ASC_NODE":"332.0303","APOAPSIS":"548.253","FILE":"3590585","MEAN_MOTION":"15.06404633","RCS_SIZE":"LARGE","OBJECT_NAME":"STARLINK-1372","GP_ID":"214115855","SEMIMAJOR_AXIS":"6925.334","PERIAPSIS":"546.145","TIME_SYSTEM":"UTC","OBJECT_ID":"2020-025N","DECAY_DATE":null,"EPOCH":"2022-10-03T14:02:33.112608","NORAD_CAT_ID":"45543","TLE_LINE2":"2 45543  53.0544 332.0303 0001522  55.0297 305.0835 15.06404633135315","TLE_LINE1":"1 45543U 20025N   22276.58510547  .00002311  00000-0  17394-3 0  9998","SITE":"AFETR","PERIOD":"95.592","EPHEMERIS_TYPE":"0","MEAN_ELEMENT_THEORY":"SGP4","OBJECT_TYPE":"PAYLOAD","CLASSIFICATION_TYPE":"U","BSTAR":"0.00017394000000","ARG_OF_PERICENTER":"55.0297","COUNTRY_CODE":"US","LAUNCH_DATE":"2020-04-22","ECCENTRICITY":"0.00015220","MEAN_MOTION_DOT":"0.00002311","MEAN_ANOMALY":"305.0835","MEAN_MOTION_DDOT":"0.0000000000000","INCLINATION":"53.0544","CENTER_NAME":"EARTH"},{"RCS_SIZE":"LARGE","GP_ID":"214085596","OBJECT_NAME":"STARLINK-1373","MEAN_MOTION":"15.06401236","TIME_SYSTEM":"UTC","SEMIMAJOR_AXIS":"6925.345","PERIAPSIS":"546.197","REF_FRAME":"TEME","APOAPSIS":"548.222","RA_OF_ASC_NODE":"332.2507","FILE":"3590320","ELEMENT_SET_NO":"999","REV_AT_EPOCH":"13621","SITE":"AFETR","PERIOD":"95.592","TLE_LINE1":"1 45544U 20025P   22276.53719071  .00001410  00000-0  11352-3 0  9994","OBJECT_TYPE":"PAYLOAD","MEAN_ELEMENT_THEORY":"SGP4","EPHEMERIS_TYPE":"0","DECAY_DATE":null,"OBJECT_ID":"2020-025P","TLE_LINE2":"2 45544  53.0535 332.2507 0001462  65.3033 294.8108 15.06401236136213","EPOCH":"2022-10-03T12:53:33.277344","NORAD_CAT_ID":"45544","ECCENTRICITY":"0.00014620","LAUNCH_DATE":"2020-04-22","MEAN_MOTION_DOT":"0.00001410","COUNTRY_CODE":"US","CLASSIFICATION_TYPE":"U","ARG_OF_PERICENTER":"65.3033","BSTAR":"0.00011352000000","INCLINATION":"53.0535","CENTER_NAME":"EARTH","MEAN_MOTION_DDOT":"0.0000000000000","MEAN_ANOMALY":"294.8108"},{"ELEMENT_SET_NO":"999","REV_AT_EPOCH":"13617","RA_OF_ASC_NODE":"332.7566","APOAPSIS":"548.670","FILE":"3590320","REF_FRAME":"TEME","SEMIMAJOR_AXIS":"6925.323","PERIAPSIS":"545.707","TIME_SYSTEM":"UTC","MEAN_MOTION":"15.06408277","RCS_SIZE":"LARGE","GP_ID":"214085842","OBJECT_NAME":"STARLINK-1374","NORAD_CAT_ID":"45545","EPOCH":"2022-10-03T10:09:01.037088","TLE_LINE2":"2 45545  53.0569 332.7566 0002139  42.2516 317.8638 15.06408277136174","OBJECT_ID":"2020-025Q","DECAY_DATE":null,"EPHEMERIS_TYPE":"0","OBJECT_TYPE":"PAYLOAD","MEAN_ELEMENT_THEORY":"SGP4","TLE_LINE1":"1 45545U 20025Q   22276.42292867  .00002447  00000-0  18308-3 0  9991","SITE":"AFETR","PERIOD":"95.592","BSTAR":"0.00018308000000","ARG_OF_PERICENTER":"42.2516","CLASSIFICATION_TYPE":"U","COUNTRY_CODE":"US","LAUNCH_DATE":"2020-04-22","ECCENTRICITY":"0.00021390","MEAN_MOTION_DOT":"0.00002447","MEAN_ANOMALY":"317.8638","MEAN_MOTION_DDOT":"0.0000000000000","CENTER_NAME":"EARTH","INCLINATION":"53.0569"},{"COUNTRY_CODE":"US","LAUNCH_DATE":"2020-04-22","ECCENTRICITY":"0.00015800","MEAN_MOTION_DOT":"0.00017368","CLASSIFICATION_TYPE":"U","BSTAR":"0.00118140000000","ARG_OF_PERICENTER":"66.0334","INCLINATION":"53.0528","CENTER_NAME":"EARTH","MEAN_ANOMALY":"294.0820","MEAN_MOTION_DDOT":"0.0000000000000","MEAN_MOTION":"15.06418949","OBJECT_NAME":"STARLINK-1375","GP_ID":"214084597","RCS_SIZE":"LARGE","PERIAPSIS":"546.061","SEMIMAJOR_AXIS":"6925.290","TIME_SYSTEM":"UTC","REF_FRAME":"TEME","REV_AT_EPOCH":"13621","ELEMENT_SET_NO":"999","FILE":"3590320","APOAPSIS":"548.250","RA_OF_ASC_NODE":"332.1212","TLE_LINE1":"1 45546U 20025R   22276.56666942  .00017368  00000-0  11814-2 0  9998","PERIOD":"95.591","SITE":"AFETR","EPHEMERIS_TYPE":"0","OBJECT_TYPE":"PAYLOAD","MEAN_ELEMENT_THEORY":"SGP4","OBJECT_ID":"2020-025R","DECAY_DATE":null,"NORAD_CAT_ID":"45546","EPOCH":"2022-10-03T13:36:00.237888","TLE_LINE2":"2 45546  53.0528 332.1212 0001580  66.0334 294.0820 15.06418949136214"}];
